ONEWEB-0349             
1 49281U 21090C   25248.60948769  .00000021  00000+0  19050-4 0  9997
2 49281  87.9282 331.1741 0001793 100.9508 259.1828 13.20770081192269
ONEWEB-0353             
1 49282U 21090D   25248.53019346 -.00000191  00000+0 -55000-3 0  9994
2 49282  87.9084 346.3755 0001697  92.5384 267.5940 13.14503586190188
ONEWEB-0356             
1 49283U 21090E   25248.60791204  .00000038  00000+0  62270-4 0  9999
2 49283  87.9286 331.1661 0002669  88.8301 271.3138 13.20771033192262
ONEWEB-0358             
1 49284U 21090F   25248.48638745  .00000127  00000+0  28002-3 0  9999
2 49284  87.9295 331.1827 0002021 100.3935 259.7426 13.20770977192976
ONEWEB-0359             
1 49285U 21090G   25248.48322823  .00000091  00000+0  19289-3 0  9994
2 49285  87.9279 331.1913 0002155 108.0390 252.0978 13.20773454192952
ONEWEB-0360             
1 49286U 21090H   25248.47377589  .00000054  00000+0  10063-3 0  9993
2 49286  87.9282 331.2021 0001919 104.3358 255.7989 13.20772340192267
ONEWEB-0361             
1 49287U 21090J   25248.60633238 -.00000005  00000+0 -43259-4 0  9997
2 49287  87.9290 331.1715 0002019  96.7372 263.3991 13.20773874192731
ONEWEB-0362             
1 49288U 21090K   25248.56097356  .00000055  00000+0  10567-3 0  9996
2 49288  87.9280   1.5819 0001706 104.7065 255.4257 13.19724017189371
